CSS (TIANHE)            
1 48274U 21035A   23259.36191410  .00036053  00000+0  39729-3 0  9991
2 48274  41.4744 321.2893 0008478  28.6326 331.4978 15.62344338136085
